METOP-B                 
1 38771U 12049A   21324.15002493  .00000028  00000-0  32667-4 0  9996
2 38771  98.6961  22.1081 0000112   2.5758  51.7898 14.21493772475994
